KUIPER-00140            
1 65965U 25228U   26189.35360534  .00001550  00000+0  23231-3 0  9999
2 65965  51.8977 172.0874 0000577  74.5874 285.5152 14.79927949 41300
KUIPER-00141            
1 65966U 25228V   26189.35900806  .00000820  00000+0  13655-3 0  9990
2 65966  51.9028 167.1167 0000688  69.5626 290.5410 14.79923131 41370
KUIPER-00146            
1 65967U 25228W   26189.32255360  .00000725  00000+0  12410-3 0  9998
2 65967  51.9008 169.7872 0000546  56.7240 303.3774 14.79929103 41330
KUIPER-00149            
1 65968U 25228X   26189.29411816 -.00007723  00000+0 -98533-3 0  9992
2 65968  51.9000 164.7983 0000541  49.1243 310.9766 14.79926553 41404
KUIPER-00154            
1 65969U 25228Y   26189.33062426  .00001719  00000+0  25448-3 0  9999
2 65969  51.8984 162.1303 0000631  69.8939 290.2091 14.79930716 41445
KUIPER-00157            
1 65970U 25228Z   26189.50002315 -.00007396  00000+0 -91415-3 0  9997
2 65970  51.9001 163.9912 0000971  29.2320 183.2432 14.81187453  5067
KUIPER-00144            
1 67133U 25301A   26189.44693660  .00001987  00000+0  28966-3 0  9993
2 67133  51.9005 241.6310 0000468  95.0766 265.0250 14.79924729 31750
KUIPER-00164            
1 67134U 25301B   26189.47638876 -.00007181  00000+0 -99135-3 0  9995
2 67134  51.9023 253.7513 0000902 329.6987  30.3922 14.76533266 31763
KUIPER-00175            
1 67135U 25301C   26189.50002315 -.00031606  00000+0 -38716-2 0  9999
2 67135  51.8989 236.4021 0002464  36.1916  15.1180 14.82683464  5810
KUIPER-00179            
1 67136U 25301D   26189.43614396  .00000233  00000+0  59555-4 0  9996
2 67136  51.8993 251.6518 0000105  43.8686 316.2285 14.79920433 31798
KUIPER-00181            
1 67137U 25301E   26187.53171617  .00022884  00000+0  30074-2 0  9999
2 67137  51.9019 272.6059 0000720  84.6908 275.4136 14.80116760 31316
KUIPER-00183            
1 67138U 25301F   26189.49235884  .00002486  00000+0  26155-3 0  9996
2 67138  51.8929 236.8108 0009675 103.5826 256.6220 14.92818543 31991
KUIPER-00184            
1 67139U 25301G   26188.19220505 -.00003655  00000+0 -45067-3 0  9991
2 67139  51.8980 252.1549 0000418  83.1205 276.9805 14.79930523 31777
KUIPER-00186            
1 67140U 25301H   26189.18631079 -.00000099  00000+0  15992-4 0  9998
2 67140  51.9012 265.3010 0000492  91.2933 268.8086 14.79924374 31403
KUIPER-00187            
1 67141U 25301J   26189.25114084 -.00003065  00000+0 -37335-3 0  9990
2 67141  51.9021 267.5373 0000587 100.0498 260.0531 14.79917126 31372
KUIPER-00188            
1 67142U 25301K   26189.38749291  .00001365  00000+0  20803-3 0  9990
2 67142  51.9009 234.5207 0000544  98.6803 261.4221 14.79929560 31842
