{"fetched_at":"2026-07-08T17:59:23.476Z","source":"https://celestrak.org/NORAD/elements/gp.php?GROUP=kuiper&FORMAT=JSON","constellation":"kuiper","records":[{"OBJECT_NAME":"KUIPER-00140","OBJECT_ID":"2025-228U","EPOCH":"2026-07-08T08:29:11.501376","CLASSIFICATION_TYPE":"U","MEAN_MOTION":14.79927949,"ECCENTRICITY":0.0000577,"INCLINATION":51.8977,"RA_OF_ASC_NODE":172.0874,"ARG_OF_PERICENTER":74.5874,"MEAN_ANOMALY":285.5152,"EPHEMERIS_TYPE":0,"NORAD_CAT_ID":65965,"ELEMENT_SET_NO":999,"REV_AT_EPOCH":4130,"BSTAR":0.00023231,"MEAN_MOTION_DOT":0.0000155,"MEAN_MOTION_DDOT":0},{"OBJECT_NAME":"KUIPER-00141","OBJECT_ID":"2025-228V","EPOCH":"2026-07-08T08:36:58.296384","CLASSIFICATION_TYPE":"U","MEAN_MOTION":14.79923131,"ECCENTRICITY":0.0000688,"INCLINATION":51.9028,"RA_OF_ASC_NODE":167.1167,"ARG_OF_PERICENTER":69.5626,"MEAN_ANOMALY":290.541,"EPHEMERIS_TYPE":0,"NORAD_CAT_ID":65966,"ELEMENT_SET_NO":999,"REV_AT_EPOCH":4137,"BSTAR":0.00013655,"MEAN_MOTION_DOT":0.0000082,"MEAN_MOTION_DDOT":0},{"OBJECT_NAME":"KUIPER-00146","OBJECT_ID":"2025-228W","EPOCH":"2026-07-08T07:44:28.631040","CLASSIFICATION_TYPE":"U","MEAN_MOTION":14.79929103,"ECCENTRICITY":0.0000546,"INCLINATION":51.9008,"RA_OF_ASC_NODE":169.7872,"ARG_OF_PERICENTER":56.724,"MEAN_ANOMALY":303.3774,"EPHEMERIS_TYPE":0,"NORAD_CAT_ID":65967,"ELEMENT_SET_NO":999,"REV_AT_EPOCH":4133,"BSTAR":0.0001241,"MEAN_MOTION_DOT":0.00000725,"MEAN_MOTION_DDOT":0},{"OBJECT_NAME":"KUIPER-00149","OBJECT_ID":"2025-228X","EPOCH":"2026-07-08T07:03:31.809024","CLASSIFICATION_TYPE":"U","MEAN_MOTION":14.79926553,"ECCENTRICITY":0.0000541,"INCLINATION":51.9,"RA_OF_ASC_NODE":164.7983,"ARG_OF_PERICENTER":49.1243,"MEAN_ANOMALY":310.9766,"EPHEMERIS_TYPE":0,"NORAD_CAT_ID":65968,"ELEMENT_SET_NO":999,"REV_AT_EPOCH":4140,"BSTAR":-0.00098533,"MEAN_MOTION_DOT":-0.00007723,"MEAN_MOTION_DDOT":0},{"OBJECT_NAME":"KUIPER-00154","OBJECT_ID":"2025-228Y","EPOCH":"2026-07-08T07:56:05.936064","CLASSIFICATION_TYPE":"U","MEAN_MOTION":14.79930716,"ECCENTRICITY":0.0000631,"INCLINATION":51.8984,"RA_OF_ASC_NODE":162.1303,"ARG_OF_PERICENTER":69.8939,"MEAN_ANOMALY":290.2091,"EPHEMERIS_TYPE":0,"NORAD_CAT_ID":65969,"ELEMENT_SET_NO":999,"REV_AT_EPOCH":4144,"BSTAR":0.00025448,"MEAN_MOTION_DOT":0.00001719,"MEAN_MOTION_DDOT":0},{"OBJECT_NAME":"KUIPER-00157","OBJECT_ID":"2025-228Z","EPOCH":"2026-07-08T12:00:02.000160","CLASSIFICATION_TYPE":"U","MEAN_MOTION":14.81187453,"ECCENTRICITY":0.0000971,"INCLINATION":51.9001,"RA_OF_ASC_NODE":163.9912,"ARG_OF_PERICENTER":29.232,"MEAN_ANOMALY":183.2432,"EPHEMERIS_TYPE":0,"NORAD_CAT_ID":65970,"ELEMENT_SET_NO":999,"REV_AT_EPOCH":506,"BSTAR":-0.00091415,"MEAN_MOTION_DOT":-0.00007396,"MEAN_MOTION_DDOT":0},{"OBJECT_NAME":"KUIPER-00144","OBJECT_ID":"2025-301A","EPOCH":"2026-07-08T10:43:35.322240","CLASSIFICATION_TYPE":"U","MEAN_MOTION":14.79924729,"ECCENTRICITY":0.0000468,"INCLINATION":51.9005,"RA_OF_ASC_NODE":241.631,"ARG_OF_PERICENTER":95.0766,"MEAN_ANOMALY":265.025,"EPHEMERIS_TYPE":0,"NORAD_CAT_ID":67133,"ELEMENT_SET_NO":999,"REV_AT_EPOCH":3175,"BSTAR":0.00028966,"MEAN_MOTION_DOT":0.00001987,"MEAN_MOTION_DDOT":0},{"OBJECT_NAME":"KUIPER-00164","OBJECT_ID":"2025-301B","EPOCH":"2026-07-08T11:25:59.988864","CLASSIFICATION_TYPE":"U","MEAN_MOTION":14.76533266,"ECCENTRICITY":0.0000902,"INCLINATION":51.9023,"RA_OF_ASC_NODE":253.7513,"ARG_OF_PERICENTER":329.6987,"MEAN_ANOMALY":30.3922,"EPHEMERIS_TYPE":0,"NORAD_CAT_ID":67134,"ELEMENT_SET_NO":999,"REV_AT_EPOCH":3176,"BSTAR":-0.00099135,"MEAN_MOTION_DOT":-0.00007181,"MEAN_MOTION_DDOT":0},{"OBJECT_NAME":"KUIPER-00175","OBJECT_ID":"2025-301C","EPOCH":"2026-07-08T12:00:02.000160","CLASSIFICATION_TYPE":"U","MEAN_MOTION":14.82683464,"ECCENTRICITY":0.0002464,"INCLINATION":51.8989,"RA_OF_ASC_NODE":236.4021,"ARG_OF_PERICENTER":36.1916,"MEAN_ANOMALY":15.118,"EPHEMERIS_TYPE":0,"NORAD_CAT_ID":67135,"ELEMENT_SET_NO":999,"REV_AT_EPOCH":581,"BSTAR":-0.0038716,"MEAN_MOTION_DOT":-0.00031606,"MEAN_MOTION_DDOT":0},{"OBJECT_NAME":"KUIPER-00179","OBJECT_ID":"2025-301D","EPOCH":"2026-07-08T10:28:02.838144","CLASSIFICATION_TYPE":"U","MEAN_MOTION":14.79920433,"ECCENTRICITY":0.0000105,"INCLINATION":51.8993,"RA_OF_ASC_NODE":251.6518,"ARG_OF_PERICENTER":43.8686,"MEAN_ANOMALY":316.2285,"EPHEMERIS_TYPE":0,"NORAD_CAT_ID":67136,"ELEMENT_SET_NO":999,"REV_AT_EPOCH":3179,"BSTAR":0.000059555,"MEAN_MOTION_DOT":0.00000233,"MEAN_MOTION_DDOT":0},{"OBJECT_NAME":"KUIPER-00181","OBJECT_ID":"2025-301E","EPOCH":"2026-07-06T12:45:40.277088","CLASSIFICATION_TYPE":"U","MEAN_MOTION":14.8011676,"ECCENTRICITY":0.00007203,"INCLINATION":51.9019,"RA_OF_ASC_NODE":272.6059,"ARG_OF_PERICENTER":84.6908,"MEAN_ANOMALY":275.4136,"EPHEMERIS_TYPE":0,"NORAD_CAT_ID":67137,"ELEMENT_SET_NO":999,"REV_AT_EPOCH":3131,"BSTAR":0.0030074041,"MEAN_MOTION_DOT":0.00022884,"MEAN_MOTION_DDOT":0},{"OBJECT_NAME":"KUIPER-00183","OBJECT_ID":"2025-301F","EPOCH":"2026-07-08T11:48:59.803776","CLASSIFICATION_TYPE":"U","MEAN_MOTION":14.92818543,"ECCENTRICITY":0.0009675,"INCLINATION":51.8929,"RA_OF_ASC_NODE":236.8108,"ARG_OF_PERICENTER":103.5826,"MEAN_ANOMALY":256.622,"EPHEMERIS_TYPE":0,"NORAD_CAT_ID":67138,"ELEMENT_SET_NO":999,"REV_AT_EPOCH":3199,"BSTAR":0.00026155,"MEAN_MOTION_DOT":0.00002486,"MEAN_MOTION_DDOT":0},{"OBJECT_NAME":"KUIPER-00184","OBJECT_ID":"2025-301G","EPOCH":"2026-07-07T04:36:46.516320","CLASSIFICATION_TYPE":"U","MEAN_MOTION":14.79930523,"ECCENTRICITY":0.0000418,"INCLINATION":51.898,"RA_OF_ASC_NODE":252.1549,"ARG_OF_PERICENTER":83.1205,"MEAN_ANOMALY":276.9805,"EPHEMERIS_TYPE":0,"NORAD_CAT_ID":67139,"ELEMENT_SET_NO":999,"REV_AT_EPOCH":3177,"BSTAR":-0.00045066591,"MEAN_MOTION_DOT":-0.00003655,"MEAN_MOTION_DDOT":0},{"OBJECT_NAME":"KUIPER-00186","OBJECT_ID":"2025-301H","EPOCH":"2026-07-08T04:28:17.252256","CLASSIFICATION_TYPE":"U","MEAN_MOTION":14.79924374,"ECCENTRICITY":0.0000492,"INCLINATION":51.9012,"RA_OF_ASC_NODE":265.301,"ARG_OF_PERICENTER":91.2933,"MEAN_ANOMALY":268.8086,"EPHEMERIS_TYPE":0,"NORAD_CAT_ID":67140,"ELEMENT_SET_NO":999,"REV_AT_EPOCH":3140,"BSTAR":0.000015992,"MEAN_MOTION_DOT":-9.9e-7,"MEAN_MOTION_DDOT":0},{"OBJECT_NAME":"KUIPER-00187","OBJECT_ID":"2025-301J","EPOCH":"2026-07-08T06:01:38.568576","CLASSIFICATION_TYPE":"U","MEAN_MOTION":14.79917126,"ECCENTRICITY":0.0000587,"INCLINATION":51.9021,"RA_OF_ASC_NODE":267.5373,"ARG_OF_PERICENTER":100.0498,"MEAN_ANOMALY":260.0531,"EPHEMERIS_TYPE":0,"NORAD_CAT_ID":67141,"ELEMENT_SET_NO":999,"REV_AT_EPOCH":3137,"BSTAR":-0.00037335,"MEAN_MOTION_DOT":-0.00003065,"MEAN_MOTION_DDOT":0},{"OBJECT_NAME":"KUIPER-00188","OBJECT_ID":"2025-301K","EPOCH":"2026-07-08T09:17:59.387424","CLASSIFICATION_TYPE":"U","MEAN_MOTION":14.7992956,"ECCENTRICITY":0.0000544,"INCLINATION":51.9009,"RA_OF_ASC_NODE":234.5207,"ARG_OF_PERICENTER":98.6803,"MEAN_ANOMALY":261.4221,"EPHEMERIS_TYPE":0,"NORAD_CAT_ID":67142,"ELEMENT_SET_NO":999,"REV_AT_EPOCH":3184,"BSTAR":0.00020803,"MEAN_MOTION_DOT":0.00001365,"MEAN_MOTION_DDOT":0}]}
